FENGYUN 1C DEB          
1 31475U 99025BVP 17345.09964272  .00000334  00000-0  11915-3 0  9994
2 31475  98.8867  98.5416 0244451 315.3805  42.7925 14.26070615543201
